ONEWEB-0271             
1 48989U 21060Y   24303.88667437  .00000234  00000+0  57761-3 0  9995
2 48989  87.9125 347.3557 0002167  92.3799 267.7580 13.16592809161334
ONEWEB-0272             
1 48990U 21060Z   24304.06082881  .00000061  00000+0  12650-3 0  9998
2 48990  87.9126 347.3510 0002089  94.1986 265.9384 13.16594654162600
ONEWEB-0273             
1 48991U 21060AA  24304.08299460  .00000059  00000+0  12067-3 0  9993
2 48991  87.9124 347.3325 0001939  90.0205 270.1149 13.16593193162586
ONEWEB-0274             
1 48992U 21060AB  24304.10833197  .00000590  00000+0  15096-2 0  9992
2 48992  87.9131 347.3507 0002294 105.7143 254.4241 13.16591064162625
ONEWEB-0275             
1 48993U 21060AC  24304.09724567  .00000130  00000+0  30742-3 0  9997
2 48993  87.9124 347.3252 0002002  93.7743 266.3617 13.16593146162547
ONEWEB-0276             
1 48994U 21060AD  24304.35848290  .00000000  00000+0 -33088-4 0  9991
2 48994  87.9123 347.2693 0002013  89.0061 271.1301 13.16594286162605
ONEWEB-0277             
1 48995U 21060AE  24303.61118111 -.00000095  00000+0 -28099-3 0  9992
2 48995  87.9124 347.4553 0002298  90.6901 269.4493 13.16594183161191
ONEWEB-0278             
1 48996U 21060AF  24304.36164972  .00000020  00000+0  18535-4 0  9993
2 48996  87.9124 347.2655 0001629  90.6411 269.4907 13.16594080162733
ONEWEB-0279             
1 48997U 21060AG  24304.36955930 -.00000066  00000+0 -20554-3 0  9991
2 48997  87.9124 347.2607 0002212  93.7719 266.3665 13.16592533162654
ONEWEB-0280             
1 48998U 21060AH  24304.38453463  .00031156  00000+0  81413-1 0  9999
2 48998  87.9117 347.2615 0002161  85.8366 274.3012 13.16406681162584
ONEWEB-0281             
1 48999U 21060AJ  24304.08616197  .00000048  00000+0  91866-4 0  9994
2 48999  87.9122 347.3212 0001917 101.4214 258.7133 13.16593863162635
ONEWEB-0282             
1 49000U 21060AK  24304.42024276  .00006077  00000+0  15858-1 0  9999
2 49000  87.9123 347.2716 0002725  84.9698 275.1744 13.16564628162668
ONEWEB-0283             
1 49001U 21060AL  24304.40914951 -.00000088  00000+0 -26449-3 0  9994
2 49001  87.9122 347.2788 0002119  95.6954 264.4418 13.16593795162675
ONEWEB-0284             
1 49002U 21060AM  24304.09882916  .00000244  00000+0  60453-3 0  9990
2 49002  87.9117 347.3162 0001688  92.0106 268.1219 13.16593556162605
ONEWEB-0285             
1 49075U 21075A   24303.87674878 -.00000371  00000+0 -10664-2 0  9998
2 49075  87.8839 109.2181 0001501  87.9415 272.1886 13.12443193158103
ONEWEB-0286             
1 49076U 21075B   24304.15317957  .00000422  00000+0  11387-2 0  9991
2 49076  87.8835 109.1613 0001307  96.3308 263.7970 13.12442946157494
ONEWEB-0287             
1 49077U 21075C   24303.44741448  .00000119  00000+0  27313-3 0  9999
2 49077  87.9070 124.5401 0001335  84.4464 275.6820 13.17648983155178
ONEWEB-0288             
1 49078U 21075D   24303.91067947  .00000650  00000+0  17701-2 0  9996
2 49078  87.8837 109.2131 0001409  84.6963 275.4326 13.12443228158090
ONEWEB-0289             
1 49079U 21075E   24303.93169389 -.00000346  00000+0 -92440-3 0  9990
2 49079  87.9075 124.4732 0001626  85.1731 274.9586 13.17648650156789
ONEWEB-0290             
1 49080U 21075F   24304.52233402  .00000110  00000+0  25109-3 0  9991
2 49080  87.9070 124.3144 0001921  66.2194 293.9138 13.17648272156282
ONEWEB-0291             
1 49081U 21075G   24303.59590256  .00000099  00000+0  22105-3 0  9990
2 49081  87.9066 124.5136 0001315  79.8823 280.2456 13.17647887155177
ONEWEB-0293             
1 49082U 21075H   24303.92495932  .00000058  00000+0  11544-3 0  9993
2 49082  87.9071 124.4687 0001534  78.9810 281.1494 13.17649363155244
ONEWEB-0294             
1 49083U 21075J   24304.22211951  .00000428  00000+0  11552-2 0  9994
2 49083  87.8837 109.1500 0001319  64.1879 295.9386 13.12445192157526
ONEWEB-0295             
1 49084U 21075K   24303.92413109  .00000032  00000+0  49190-4 0  9992
2 49084  87.9073 124.4473 0001170  84.0442 276.0823 13.17649609156160
ONEWEB-0296             
1 49085U 21075L   24303.44026531  .00000155  00000+0  39554-3 0  9997
2 49085  87.8840 109.3097 0000886  69.2344 290.8879 13.12445340156431
ONEWEB-0297             
1 49086U 21075M   24303.92852604  .00000327  00000+0  87243-3 0  9998
2 49086  87.8846 109.2291 0001478  91.7438 268.3860 13.12441579157100
ONEWEB-0298             
1 49087U 21075N   24303.92832908  .00000062  00000+0  12552-3 0  9991
2 49087  87.9070 124.4642 0001425  94.1142 266.0153 13.17649657155235
ONEWEB-0299             
1 49088U 21075P   24303.93000658 -.00000321  00000+0 -86042-3 0  9997
2 49088  87.9065 124.4275 0001393  95.3109 264.8181 13.17648706155211
ONEWEB-0300             
1 49089U 21075Q   24303.69169741  .00000457  00000+0  12337-2 0  9993
2 49089  87.8838 109.2536 0001804  97.4432 262.6902 13.12443369157097
ONEWEB-0301             
1 49090U 21075R   24304.20913524  .00000312  00000+0  83259-3 0  9991
2 49090  87.8840 109.1548 0001754  95.6043 264.5286 13.12449454157510
ONEWEB-0302             
1 49091U 21075S   24303.43376931 -.00000827  00000+0 -23342-2 0  9990
2 49091  87.8836 109.3085 0001305  73.7121 286.4151 13.12444949156405
ONEWEB-0304             
1 49092U 21075T   24304.20846679  .00000761  00000+0  19272-2 0  9990
2 49092  87.9070 124.3930 0001336  88.5499 271.5785 13.17647461156204
ONEWEB-0305             
1 49093U 21075U   24304.50543532  .00000056  00000+0  11205-3 0  9992
2 49093  87.9069 124.3178 0001123  97.3794 262.7465 13.17648092156261
ONEWEB-0308             
1 49094U 21075V   24303.42730339 -.00000176  00000+0 -52380-3 0  9990
2 49094  87.8837 109.3080 0001596  91.3678 268.7634 13.12443563156410
ONEWEB-0309             
1 49095U 21075W   24303.52164747  .00000112  00000+0  25636-3 0  9998
2 49095  87.9072 124.5221 0001474  66.3590 293.7696 13.17651244155135
ONEWEB-0310             
1 49096U 21075X   24304.43298602  .00000074  00000+0  16919-3 0  9999
2 49096  87.8851 109.1275 0001467  83.4745 276.6551 13.12443440158171
ONEWEB-0311             
1 49097U 21075Y   24303.90806801  .00000218  00000+0  52806-3 0  9992
2 49097  87.9071 124.4464 0001204  99.0847 261.0421 13.17649930155237
ONEWEB-0312             
1 49098U 21075Z   24303.92325200 -.00000337  00000+0 -90183-3 0  9998
2 49098  87.9073 124.4755 0001123  79.3199 280.8059 13.17648119155216
ONEWEB-0313             
1 49099U 21075AA  24304.22715353 -.00000099  00000+0 -29475-3 0  9996
2 49099  87.9071 124.4281 0001285  84.7659 275.3618 13.16053943156247
ONEWEB-0314             
1 49100U 21075AB  24303.59082501  .00000067  00000+0  14046-3 0  9991
2 49100  87.9069 124.4969 0001100  83.3442 276.7815 13.17647988155131
ONEWEB-0315             
1 49101U 21075AC  24303.87337134 -.00000298  00000+0 -86330-3 0  9991
2 49101  87.8834 109.2110 0001443 106.5085 253.6202 13.12441560158085
ONEWEB-0316             
1 49102U 21075AD  24304.13598632  .00000048  00000+0  89177-4 0  9998
2 49102  87.9072  93.8819 0001443  98.9544 261.1751 13.18683860159798
ONEWEB-0317             
1 49103U 21075AE  24304.17183412 -.00000147  00000+0 -44442-3 0  9996
2 49103  87.8838 109.1631 0001950  80.4534 279.6815 13.12442165158136
ONEWEB-0318             
1 49104U 21075AF  24303.67757857  .00000078  00000+0  16484-3 0  9997
2 49104  87.9068  93.9633 0001390 101.8115 258.3173 13.18684285158684
ONEWEB-0319             
1 49105U 21075AG  24303.45413818 -.00000261  00000+0 -70508-3 0  9993
2 49105  87.9072 124.5625 0001182 101.4064 258.7200 13.17649283155152
ONEWEB-0323             
1 49106U 21075AH  24303.93338656  .00000162  00000+0  41633-3 0  9998
2 49106  87.8836 109.1976 0000981 121.9923 238.1301 13.12441230156472
ONEWEB-0329             
1 49107U 21075AJ  24303.46258161  .00000100  00000+0  22505-3 0  9998
2 49107  87.9070 124.5648 0001310  87.2921 272.8361 13.17651760155139
ONEWEB-0330             
1 49108U 21075AK  24303.23645645 -.00000013  00000+0 -67635-4 0  9990
2 49108  87.9069 124.6110 0001344  79.2599 280.8684 13.17650812155147
ONEWEB-0292             
1 49186U 21083A   24304.14110561  .00000468  00000+0  12461-2 0  9997
2 49186  87.8901  78.6274 0001457 102.2011 257.9281 13.13468091154102
ONEWEB-0303             
1 49187U 21083B   24303.67441140  .00000052  00000+0  99883-4 0  9999
2 49187  87.9068  93.9651 0001483 101.9046 258.2253 13.18688108151490
ONEWEB-0306             
1 49188U 21083C   24303.66494037  .00000118  00000+0  26645-3 0  9990
2 49188  87.9068  93.9527 0001604  86.3299 273.8017 13.18686784151538
ONEWEB-0307             
1 49189U 21083D   24304.36409071  .00000244  00000+0  63260-3 0  9997
2 49189  87.8902  78.5843 0001526  83.6162 276.5140 13.13470463154133
ONEWEB-0320             
1 49190U 21083E   24303.67123597  .00000102  00000+0  22688-3 0  9990
2 49190  87.9069  93.9780 0001537  92.7868 267.3439 13.18688421151492
ONEWEB-0321             
1 49191U 21083F   24304.20710384  .00002815  00000+0  68905-2 0  9991
2 49191  87.9302  32.7956 0001816  98.6715 261.4624 13.20759192159570
ONEWEB-0322             
1 49192U 21083G   24303.67451594  .00000458  00000+0  12204-2 0  9999
2 49192  87.8901  78.7110 0001968  87.3876 272.7478 13.13467850152741
ONEWEB-0324             
1 49193U 21083H   24304.11228984  .00000032  00000+0  47838-4 0  9996
2 49193  87.9069  93.8706 0001265  90.0746 270.0531 13.18684883152859
ONEWEB-0325             
1 49194U 21083J   24303.66175008  .00000033  00000+0  50097-4 0  9996
2 49194  87.9069  93.9758 0001579  92.7098 267.4215 13.18689027151522
ONEWEB-0326             
1 49195U 21083K   24303.67599419  .00000142  00000+0  32819-3 0  9996
2 49195  87.9068  93.9688 0001346 110.5332 249.5944 13.18692081151519
ONEWEB-0327             
1 49196U 21083L   24303.67518092  .00000118  00000+0  26639-3 0  9991
2 49196  87.9069  93.9944 0001521 106.6591 253.4708 13.18689083151536
